NORAD_CAT_ID,OBJECT_NAME,OBJECT_TYPE,EPOCH,MEAN_MOTION,ECCENTRICITY,INCLINATION,RA_OF_ASC_NODE,ARG_OF_PERICENTER,MEAN_ANOMALY,BSTAR,MEAN_MOTION_DOT,MEAN_MOTION_DDOT,TLE_LINE0,TLE_LINE1,TLE_LINE2,SEMIMAJOR_AXIS,PERIOD,APOGEE,PERIGEE,DECAYED
53015.0,STARLINK-4262,PAYLOAD,2023-03-07 02:16:51,15.08855967,0.0001429,53.2163,335.9116,63.7907,296.3232,0.0015218,0.00024025,0.0,0 STARLINK-4262,1 53015U 22076AF  23066.09503586  .00024025  00000-0  15218-2 0  9996,2 53015  53.2163 335.9116 0001429  63.7907 296.3232 15.08855967 37609,6917.832,95.437,540.685,538.708,0.0
53015.0,STARLINK-4262,PAYLOAD,2023-03-07 18:10:42,15.08842481,7.57e-05,53.215,332.9358,25.3552,334.7478,0.0010313,0.00016164,0.0,0 STARLINK-4262,1 53015U 22076AF  23066.75743908  .00016164  00000-0  10313-2 0  9999,2 53015  53.2150 332.9358 0000757  25.3552 334.7478 15.08842481 37700,6917.873,95.437,540.261,539.214,0.0
53015.0,STARLINK-4262,PAYLOAD,2023-03-08 02:07:37,15.08871838,0.000116,53.2152,331.4504,80.7801,279.3322,0.0020775,0.00032959,0.0,0 STARLINK-4262,1 53015U 22076AF  23067.08863366  .00032959  00000-0  20775-2 0  9990,2 53015  53.2152 331.4504 0001160  80.7801 279.3322 15.08871838 37755,6917.783,95.436,540.451,538.846,0.0
53015.0,STARLINK-4262,PAYLOAD,2023-03-08 18:01:29,15.08857156,0.000217,53.2175,328.478,88.4858,271.6383,0.0023214,0.00036869,0.0,0 STARLINK-4262,1 53015U 22076AF  23067.75104018  .00036869  00000-0  23214-2 0  9991,2 53015  53.2175 328.4780 0002170  88.4858 271.6383 15.08857156 37389,6917.828,95.436,541.194,538.192,0.0
53015.0,STARLINK-4262,PAYLOAD,2023-03-09 00:23:02,15.08853397,0.0001005,53.2162,327.2872,28.6158,331.4889,0.0028569,0.0004549,0.0,0 STARLINK-4262,1 53015U 22076AF  23068.01600199  .00045490  00000-0  28569-2 0  9990,2 53015  53.2162 327.2872 0001005  28.6158 331.4889 15.08853397 37894,6917.839,95.437,540.4,539.009,0.0
53015.0,STARLINK-4262,PAYLOAD,2023-03-09 17:52:17,15.08860904,0.0001011,53.2161,324.0183,43.7865,316.3207,0.0024183,0.00038431,0.0,0 STARLINK-4262,1 53015U 22076AF  23068.74464583  .00038431  00000-0  24183-2 0  9990,2 53015  53.2161 324.0183 0001011  43.7865 316.3207 15.08860904 38005,6917.816,95.436,540.381,538.982,0.0
53015.0,STARLINK-4262,PAYLOAD,2023-03-09 21:03:03,15.0887123,9.09e-05,53.2162,323.4239,25.596,334.5077,0.0024818,0.00039465,0.0,0 STARLINK-4262,1 53015U 22076AF  23068.87712326  .00039465  00000-0  24818-2 0  9998,2 53015  53.2162 323.4239 0000909  25.5960 334.5077 15.08871230 37550,6917.785,95.436,540.279,539.021,0.0
53015.0,STARLINK-4262,PAYLOAD,2023-03-10 09:46:08,15.08848319,0.0001229,53.2151,321.0425,86.9332,273.18,-0.00027722,-4.698e-05,0.0,0 STARLINK-4262,1 53015U 22076AF  23069.40703894 -.00004698  00000-0 -27722-3 0  9998,2 53015  53.2151 321.0425 0001229  86.9332 273.1800 15.08848319 38105,6917.855,95.437,540.57,538.87,0.0
53015.0,STARLINK-4262,PAYLOAD,2023-03-10 20:53:50,15.08826381,8.24e-05,53.2138,318.9605,107.2486,252.8597,0.0008182,0.00012753,0.0,0 STARLINK-4262,1 53015U 22076AF  23069.87072600  .00012753  00000-0  81820-3 0  9991,2 53015  53.2138 318.9605 0000824 107.2486 252.8597 15.08826381 37709,6917.922,95.438,540.357,539.217,0.0
53015.0,STARLINK-4262,PAYLOAD,2023-03-11 03:15:23,15.08845672,0.0001102,53.2141,317.7703,101.6878,258.4238,0.002632,0.00041856,0.0,0 STARLINK-4262,1 53015U 22076AF  23070.13568902  .00041856  00000-0  26320-2 0  9996,2 53015  53.2141 317.7703 0001102 101.6878 258.4238 15.08845672 38217,6917.863,95.437,540.49,538.966,0.0
53015.0,STARLINK-4262,PAYLOAD,2023-03-12 01:30:47,15.08865972,0.0002042,53.2135,313.6049,86.8737,273.2489,0.0019728,0.00031272,0.0,0 STARLINK-4262,1 53015U 22076AF  23071.06305472  .00031272  00000-0  19728-2 0  9995,2 53015  53.2135 313.6049 0002042  86.8737 273.2489 15.08865972 38353,6917.801,95.436,541.079,538.253,0.0
53015.0,STARLINK-4262,PAYLOAD,2023-03-13 01:21:34,15.08866997,0.0001131,53.2147,309.1451,89.7491,270.3631,0.001567,0.00024757,0.0,0 STARLINK-4262,1 53015U 22076AF  23072.05664995  .00024757  00000-0  15670-2 0  9995,2 53015  53.2147 309.1451 0001131  89.7491 270.3631 15.08866997 38502,6917.798,95.436,540.445,538.88,0.0
53015.0,STARLINK-4262,PAYLOAD,2023-03-13 22:01:36,15.08839263,0.0001239,53.2152,305.2795,98.878,261.2353,0.0011958,0.00018794,0.0,0 STARLINK-4262,1 53015U 22076AF  23072.91777820  .00018794  00000-0  11958-2 0  9991,2 53015  53.2152 305.2795 0001239  98.8780 261.2353 15.08839263 38165,6917.883,95.438,540.605,538.891,0.0
53015.0,STARLINK-4262,PAYLOAD,2023-03-14 01:12:22,15.08837533,0.0001257,53.2154,304.6838,96.3495,263.764,0.00084009,0.00013106,0.0,0 STARLINK-4262,1 53015U 22076AF  23073.05025841  .00013106  00000-0  84009-3 0  9996,2 53015  53.2154 304.6838 0001257  96.3495 263.7640 15.08837533 38652,6917.888,95.438,540.623,538.883,0.0
53015.0,STARLINK-4262,PAYLOAD,2023-03-14 07:33:54,15.0884566,0.0001174,53.2149,303.4937,102.6118,257.5006,0.0007913,0.0001233,0.0,0 STARLINK-4262,1 53015U 22076AF  23073.31521713  .00012330  00000-0  79130-3 0  9991,2 53015  53.2149 303.4937 0001174 102.6118 257.5006 15.08845660 38224,6917.863,95.437,540.54,538.916,0.0
53015.0,STARLINK-4262,PAYLOAD,2023-03-14 21:52:22,15.08863567,0.0001513,53.2144,300.819,74.4543,285.6616,0.0017342,0.00027438,0.0,0 STARLINK-4262,1 53015U 22076AF  23073.91137215  .00027438  00000-0  17342-2 0  9998,2 53015  53.2144 300.8190 0001513  74.4543 285.6616 15.08863567 38311,6917.808,95.436,540.72,538.627,0.0
53015.0,STARLINK-4262,PAYLOAD,2023-03-15 01:03:08,15.08878813,0.0001557,53.2144,300.2249,71.6552,288.461,0.00127,0.00020003,0.0,0 STARLINK-4262,1 53015U 22076AF  23074.04384772  .00020003  00000-0  12700-2 0  9999,2 53015  53.2144 300.2249 0001557  71.6552 288.4610 15.08878813 38806,6917.762,95.435,540.704,538.55,0.0
53015.0,STARLINK-4262,PAYLOAD,2023-03-15 21:43:08,15.08858442,0.0001476,53.2147,296.3585,82.8569,277.2591,0.00043979,6.722e-05,0.0,0 STARLINK-4262,1 53015U 22076AF  23074.90496521  .00006722  00000-0  43979-3 0  9995,2 53015  53.2147 296.3585 0001476  82.8569 277.2591 15.08858442 38461,6917.824,95.436,540.71,538.668,0.0
53015.0,STARLINK-4262,PAYLOAD,2023-03-16 00:53:55,15.088547,0.0001205,53.215,295.7636,77.8696,282.2431,0.00041235,6.283e-05,0.0,0 STARLINK-4262,1 53015U 22076AF  23075.03744502  .00006283  00000-0  41235-3 0  9990,2 53015  53.2150 295.7636 0001205  77.8696 282.2431 15.08854700 38956,6917.835,95.437,540.534,538.867,0.0
53015.0,STARLINK-4262,PAYLOAD,2023-03-16 21:33:57,15.08814978,9.28e-05,53.2141,291.8978,84.739,275.3708,0.00065206,0.00010098,0.0,0 STARLINK-4262,1 53015U 22076AF  23075.89858086  .00010098  00000-0  65206-3 0  9990,2 53015  53.2141 291.8978 0000928  84.7390 275.3708 15.08814978 38617,6917.957,95.439,540.464,539.18,0.0
53015.0,STARLINK-4262,PAYLOAD,2023-03-16 23:09:20,15.08816133,0.000119,53.2138,291.6005,89.9769,270.136,0.00072501,0.00011262,0.0,0 STARLINK-4262,1 53015U 22076AF  23075.96482227  .00011262  00000-0  72501-3 0  9998,2 53015  53.2138 291.6005 0001190  89.9769 270.1360 15.08816133 39096,6917.953,95.439,540.642,538.995,0.0
53015.0,STARLINK-4262,PAYLOAD,2023-03-17 07:06:16,15.0882982,0.0001128,53.2139,290.1142,97.6657,262.4463,0.00074812,0.00011635,0.0,0 STARLINK-4262,1 53015U 22076AF  23076.29602356  .00011635  00000-0  74812-3 0  9993,2 53015  53.2139 290.1142 0001128  97.6657 262.4463 15.08829820 38674,6917.912,95.438,540.557,538.996,0.0
53015.0,STARLINK-4262,PAYLOAD,2023-03-18 00:35:30,15.08857659,0.0001079,53.2135,286.8429,100.8637,259.2477,0.00088163,0.00013778,0.0,0 STARLINK-4262,1 53015U 22076AF  23077.02465823  .00013778  00000-0  88163-3 0  9995,2 53015  53.2135 286.8429 0001079 100.8637 259.2477 15.08857659 39255,6917.826,95.436,540.438,538.945,0.0
53015.0,STARLINK-4262,PAYLOAD,2023-03-18 21:15:31,15.08849689,0.0001395,53.2143,282.9751,89.1253,270.9899,0.00044138,6.745e-05,0.0,0 STARLINK-4262,1 53015U 22076AF  23077.88577694  .00006745  00000-0  44138-3 0  9999,2 53015  53.2143 282.9751 0001395  89.1253 270.9899 15.08849689 39389,6917.851,95.437,540.681,538.751,0.0
53015.0,STARLINK-4262,PAYLOAD,2023-03-19 13:09:22,15.08846502,0.000142,53.2117,280.003,85.1572,274.9583,0.00011827,1.595e-05,0.0,0 STARLINK-4262,1 53015U 22076AF  23078.54817502  .00001595  00000-0  11827-3 0  9995,2 53015  53.2117 280.0030 0001420  85.1572 274.9583 15.08846502 39484,6917.861,95.437,540.708,538.743,0.0
53015.0,STARLINK-4262,PAYLOAD,2023-03-19 21:06:18,15.08847625,0.0001689,53.2136,278.517,62.7459,297.3705,6.0405e-05,6.74e-06,0.0,0 STARLINK-4262,1 53015U 22076AF  23078.87937577  .00000674  00000-0  60405-4 0  9990,2 53015  53.2136 278.5170 0001689  62.7459 297.3705 15.08847625 39060,6917.857,95.437,540.891,538.554,0.0
53015.0,STARLINK-4262,PAYLOAD,2023-03-20 06:38:36,15.0884565,0.0001458,53.2145,276.7322,66.2209,293.8936,7.2422e-05,8.65e-06,0.0,0 STARLINK-4262,1 53015U 22076AF  23079.27681442  .00000865  00000-0  72422-4 0  9996,2 53015  53.2145 276.7322 0001458  66.2209 293.8936 15.08845650 39125,6917.863,95.437,540.737,538.719,0.0
53015.0,STARLINK-4262,PAYLOAD,2023-03-20 19:21:41,15.08846511,0.0001056,53.2143,274.3527,78.3935,281.7175,0.00012574,1.714e-05,0.0,0 STARLINK-4262,1 53015U 22076AF  23079.80673298  .00001714  00000-0  12574-3 0  9990,2 53015  53.2143 274.3527 0001056  78.3935 281.7175 15.08846511 39205,6917.86,95.437,540.456,538.995,0.0
53015.0,STARLINK-4262,PAYLOAD,2023-03-20 22:32:27,15.08853323,0.0001194,53.2132,273.7566,91.3288,268.7841,0.00027738,4.131e-05,0.0,0 STARLINK-4262,1 53015U 22076AF  23079.93921010  .00004131  00000-0  27738-3 0  9996,2 53015  53.2132 273.7566 0001194  91.3288 268.7841 15.08853323 39695,6917.84,95.437,540.531,538.879,0.0
53015.0,STARLINK-4262,PAYLOAD,2023-03-21 19:12:28,15.08844825,0.0001282,53.2126,269.8902,85.7871,274.3268,0.00014985,2.098e-05,0.0,0 STARLINK-4262,1 53015U 22076AF  23080.80033194  .00002098  00000-0  14985-3 0  9991,2 53015  53.2126 269.8902 0001282  85.7871 274.3268 15.08844825 39829,6917.866,95.437,540.618,538.844,0.0
